NORAD_CAT_ID,OBJECT_NAME,OBJECT_TYPE,EPOCH,MEAN_MOTION,ECCENTRICITY,INCLINATION,RA_OF_ASC_NODE,ARG_OF_PERICENTER,MEAN_ANOMALY,BSTAR,MEAN_MOTION_DOT,MEAN_MOTION_DDOT,TLE_LINE0,TLE_LINE1,TLE_LINE2,SEMIMAJOR_AXIS,PERIOD,APOGEE,PERIGEE,DECAYED
55303.0,STARLINK-5322,PAYLOAD,2023-11-11 22:08:41,14.98331205,0.0002602,70.0015,24.3039,279.5514,80.5351,9.2266e-06,1.7e-07,0.0,0 STARLINK-5322,1 55303U 23010AL  23315.92270449  .00000017  00000-0  92266-5 0  9991,2 55303  70.0015  24.3039 0002602 279.5514  80.5351 14.98331205 45349,6950.189,96.107,573.863,570.246,0.0
55303.0,STARLINK-5322,PAYLOAD,2023-11-12 10:57:45,14.98341454,0.0002763,70.0011,22.9583,265.9669,94.1174,-5.4651e-05,-7.45e-06,0.0,0 STARLINK-5322,1 55303U 23010AL  23316.45677739 -.00000745  00000-0 -54651-4 0  9998,2 55303  70.0011  22.9583 0002763 265.9669  94.1174 14.98341454 45421,6950.157,96.106,573.943,570.102,0.0
55303.0,STARLINK-5322,PAYLOAD,2023-11-12 12:33:54,14.98328381,0.000279,70.0009,22.7899,267.1869,92.8971,-0.00019625,-2.434e-05,0.0,0 STARLINK-5322,1 55303U 23010AL  23316.52354866 -.00002434  00000-0 -19625-3 0  9997,2 55303  70.0009  22.7899 0002790 267.1869  92.8971 14.98328381 45730,6950.198,96.107,574.002,570.124,0.0
55303.0,STARLINK-5322,PAYLOAD,2023-11-12 14:10:02,14.98333171,0.0002912,70.0007,22.6214,268.0475,92.035,-0.00014387,-1.809e-05,0.0,0 STARLINK-5322,1 55303U 23010AL  23316.59030413 -.00001809  00000-0 -14387-3 0  9998,2 55303  70.0007  22.6214 0002912 268.0475  92.0350 14.98333171 45441,6950.183,96.107,574.072,570.024,0.0
55303.0,STARLINK-5322,PAYLOAD,2023-11-12 22:10:42,14.98333671,0.0002734,70.0015,21.779,270.7205,89.364,-9.4654e-05,-1.222e-05,0.0,0 STARLINK-5322,1 55303U 23010AL  23316.92410199 -.00001222  00000-0 -94654-4 0  9993,2 55303  70.0015  21.7790 0002734 270.7205  89.3640 14.98333671 45796,6950.182,96.107,573.947,570.146,0.0
55303.0,STARLINK-5322,PAYLOAD,2023-11-13 10:59:46,14.98341036,0.0002908,70.0003,20.4332,269.7137,90.3689,-9.0242e-05,-1.17e-05,0.0,0 STARLINK-5322,1 55303U 23010AL  23317.45817486 -.00001170  00000-0 -90242-4 0  9993,2 55303  70.0003  20.4332 0002908 269.7137  90.3689 14.98341036 45571,6950.159,96.106,574.045,570.003,0.0
55303.0,STARLINK-5322,PAYLOAD,2023-11-13 12:35:54,14.98341855,0.0002885,70.0002,20.2647,269.4817,90.6011,-7.897e-05,-1.035e-05,0.0,0 STARLINK-5322,1 55303U 23010AL  23317.52493360 -.00001035  00000-0 -78970-4 0  9996,2 55303  70.0002  20.2647 0002885 269.4817  90.6011 14.98341855 45888,6950.156,96.106,574.026,570.016,0.0
55303.0,STARLINK-5322,PAYLOAD,2023-11-13 22:12:42,14.98339071,0.0002842,70.0004,19.2541,269.1918,90.8915,-0.00011671,-1.486e-05,0.0,0 STARLINK-5322,1 55303U 23010AL  23317.92549426 -.00001486  00000-0 -11671-3 0  9999,2 55303  70.0004  19.2541 0002842 269.1918  90.8915 14.98339071 45942,6950.165,96.106,574.005,570.055,0.0
55303.0,STARLINK-5322,PAYLOAD,2023-11-14 11:01:47,14.98320665,0.000272,70.0002,17.9084,267.2014,92.8833,7.8376e-05,8.42e-06,0.0,0 STARLINK-5322,1 55303U 23010AL  23318.45958263  .00000842  00000-0  78376-4 0  9990,2 55303  70.0002  17.9084 0002720 267.2014  92.8833 14.98320665 45724,6950.222,96.108,573.977,570.196,0.0
55303.0,STARLINK-5322,PAYLOAD,2023-11-14 14:14:04,14.98319593,0.0002752,70.0003,17.5719,267.2798,92.8047,7.0483e-05,7.48e-06,0.0,0 STARLINK-5322,1 55303U 23010AL  23318.59310420  .00000748  00000-0  70483-4 0  9998,2 55303  70.0003  17.5719 0002752 267.2798  92.8047 14.98319593 46041,6950.225,96.108,574.003,570.177,0.0
55303.0,STARLINK-5322,PAYLOAD,2023-11-15 11:03:48,14.98332751,0.0002876,70.0001,15.3838,273.6091,86.4739,5.192e-06,-3.1e-07,0.0,0 STARLINK-5322,1 55303U 23010AL  23319.46097817 -.00000031  00000-0  51920-5 0  9999,2 55303  70.0001  15.3838 0002876 273.6091  86.4739 14.98332751 45879,6950.184,96.107,574.048,570.051,0.0
55303.0,STARLINK-5322,PAYLOAD,2023-11-15 12:39:56,14.98332387,0.0002214,70.0013,15.2155,277.7858,82.305,3.4396e-05,3.18e-06,0.0,0 STARLINK-5322,1 55303U 23010AL  23319.52773946  .00000318  00000-0  34396-4 0  9994,2 55303  70.0013  15.2155 0002214 277.7858  82.3050 14.98332387 46186,6950.186,96.107,573.589,570.512,0.0
55303.0,STARLINK-5322,PAYLOAD,2023-11-15 20:40:36,14.98331561,0.0002874,70.0001,14.3738,273.7397,86.3433,1.1657e-05,4.6e-07,0.0,0 STARLINK-5322,1 55303U 23010AL  23319.86153806  .00000046  00000-0  11657-4 0  9991,2 55303  70.0001  14.3738 0002874 273.7397  86.3433 14.98331561 46234,6950.188,96.107,574.051,570.056,0.0
55303.0,STARLINK-5322,PAYLOAD,2023-11-16 09:29:41,14.9832696,0.0002902,70.0001,13.0271,274.5167,85.5661,4.8825e-05,4.9e-06,0.0,0 STARLINK-5322,1 55303U 23010AL  23320.39561994  .00000490  00000-0  48825-4 0  9992,2 55303  70.0001  13.0271 0002902 274.5167  85.5661 14.98326960 46318,6950.202,96.107,574.084,570.05,0.0
55303.0,STARLINK-5322,PAYLOAD,2023-11-17 11:07:50,14.98330475,0.0002714,69.9999,10.3325,262.7984,97.2867,1.3668e-05,7e-07,0.0,0 STARLINK-5322,1 55303U 23010AL  23321.46377936  .00000070  00000-0  13668-4 0  9993,2 55303  69.9999  10.3325 0002714 262.7984  97.2867 14.98330475 46176,6950.191,96.107,573.943,570.17,0.0
55303.0,STARLINK-5322,PAYLOAD,2023-11-17 14:20:06,14.98329124,0.0002825,70.0,9.9973,267.0398,93.0437,-1.4112e-05,-2.61e-06,0.0,0 STARLINK-5322,1 55303U 23010AL  23321.59730070 -.00000261  00000-0 -14112-4 0  9998,2 55303  70.0000   9.9973 0002825 267.0398  93.0437 14.98329124 46496,6950.196,96.107,574.024,570.097,0.0
55303.0,STARLINK-5322,PAYLOAD,2023-11-17 20:44:39,14.98310739,0.0003085,69.9991,9.323,282.5266,77.5548,0.00034047,3.97e-05,0.0,0 STARLINK-5322,1 55303U 23010AL  23321.86434614  .00003970  00000-0  34047-3 0  9999,2 55303  69.9991   9.3230 0003085 282.5266  77.5548 14.98310739 46534,6950.252,96.108,574.262,569.973,0.0
55303.0,STARLINK-5322,PAYLOAD,2023-11-18 12:45:59,14.98328932,0.000286,70.0003,7.6392,262.977,97.1064,4.5869e-05,4.54e-06,0.0,0 STARLINK-5322,1 55303U 23010AL  23322.53193852  .00000454  00000-0  45869-4 0  9999,2 55303  70.0003   7.6392 0002860 262.9770  97.1064 14.98328932 46336,6950.196,96.107,574.049,570.073,0.0
55303.0,STARLINK-5322,PAYLOAD,2023-11-18 20:46:39,14.98328002,0.0002828,70.0004,6.7971,264.2191,95.8645,6.922e-07,-8.5e-07,0.0,0 STARLINK-5322,1 55303U 23010AL  23322.86574036 -.00000085  00000-0  69220-6 0  9992,2 55303  70.0004   6.7971 0002828 264.2191  95.8645 14.98328002 46682,6950.199,96.107,574.03,570.099,0.0
55303.0,STARLINK-5322,PAYLOAD,2023-11-19 12:48:00,14.98329355,0.0002973,69.9996,5.1149,270.0217,90.0601,7.9362e-05,8.54e-06,0.0,0 STARLINK-5322,1 55303U 23010AL  23323.53333724  .00000854  00000-0  79362-4 0  9993,2 55303  69.9996   5.1149 0002973 270.0217  90.0601 14.98329355 46786,6950.195,96.107,574.126,569.994,0.0
55303.0,STARLINK-5322,PAYLOAD,2023-11-19 20:48:40,14.98331479,0.0002811,70.0,4.2731,270.4443,89.6393,3.2722e-05,2.97e-06,0.0,0 STARLINK-5322,1 55303U 23010AL  23323.86713716  .00000297  00000-0  32722-4 0  9992,2 55303  70.0000   4.2731 0002811 270.4443  89.6393 14.98331479 46836,6950.188,96.107,574.007,570.1,0.0
55303.0,STARLINK-5322,PAYLOAD,2023-11-20 09:37:44,14.98344696,0.0002546,70.0001,2.9264,265.3057,94.7811,8.7633e-06,1.2e-07,0.0,0 STARLINK-5322,1 55303U 23010AL  23324.40120792  .00000012  00000-0  87633-5 0  9996,2 55303  70.0001   2.9264 0002546 265.3057  94.7811 14.98344696 46615,6950.147,96.106,573.782,570.243,0.0
55303.0,STARLINK-5322,PAYLOAD,2023-11-20 12:50:00,14.98344926,0.000239,70.0003,2.5894,262.4152,97.6736,-9.9297e-05,-1.278e-05,0.0,0 STARLINK-5322,1 55303U 23010AL  23324.53472978 -.00001278  00000-0 -99297-4 0  9991,2 55303  70.0003   2.5894 0002390 262.4152  97.6736 14.98344926 46932,6950.147,96.106,573.673,570.351,0.0
55303.0,STARLINK-5322,PAYLOAD,2023-11-21 03:15:13,14.98329309,0.0002506,70.0,1.075,272.7669,87.3203,2.4803e-06,-6.3e-07,0.0,0 STARLINK-5322,1 55303U 23010AL  23325.13557729 -.00000063  00000-0  24803-5 0  9998,2 55303  70.0000   1.0750 0002506 272.7669  87.3203 14.98329309 46720,6950.195,96.107,573.802,570.318,0.0
55303.0,STARLINK-5322,PAYLOAD,2023-11-21 11:15:53,14.98341765,0.0002505,70.0004,0.234,263.8456,96.2417,-0.00021083,-2.608e-05,0.0,0 STARLINK-5322,1 55303U 23010AL  23325.46937311 -.00002608  00000-0 -21083-3 0  9996,2 55303  70.0004   0.2340 0002505 263.8456  96.2417 14.98341765 46775,6950.157,96.106,573.763,570.28,0.0
55303.0,STARLINK-5322,PAYLOAD,2023-11-21 12:52:02,14.98331135,0.0002752,70.0004,0.0655,267.5749,92.5095,-1.8258e-05,-3.11e-06,0.0,0 STARLINK-5322,1 55303U 23010AL  23325.53613511 -.00000311  00000-0 -18258-4 0  9997,2 55303  70.0004   0.0655 0002752 267.5749  92.5095 14.98331135 47088,6950.189,96.107,573.967,570.142,0.0
55303.0,STARLINK-5322,PAYLOAD,2023-11-22 11:17:54,14.98334125,0.0002696,70.0004,357.7087,269.2585,90.8265,2.1497e-05,1.64e-06,0.0,0 STARLINK-5322,1 55303U 23010AL  23326.47077070  .00000164  00000-0  21497-4 0  9998,2 55303  70.0004 357.7087 0002696 269.2585  90.8265 14.98334125 46927,6950.18,96.107,573.919,570.171,0.0
55303.0,STARLINK-5322,PAYLOAD,2023-11-22 20:54:41,14.98372619,0.000292,70.0001,356.6993,262.5601,97.5226,-0.00069574,-8.394e-05,0.0,0 STARLINK-5322,1 55303U 23010AL  23326.87131918 -.00008394  00000-0 -69574-3 0  9996,2 55303  70.0001 356.6993 0002920 262.5601  97.5226 14.98372619 47284,6950.061,96.104,573.956,569.897,0.0
55303.0,STARLINK-5322,PAYLOAD,2023-11-23 03:19:15,14.9832091,0.0002757,69.9997,356.0255,242.9148,117.173,-7.8047e-05,-1.024e-05,0.0,0 STARLINK-5322,1 55303U 23010AL  23327.13837920 -.00001024  00000-0 -78047-4 0  9991,2 55303  69.9997 356.0255 0002757 242.9148 117.1730 14.98320910 47024,6950.221,96.108,574.002,570.17,0.0
55303.0,STARLINK-5322,PAYLOAD,2023-11-23 11:19:56,14.98322835,0.0002715,70.0,355.1842,255.4234,104.6624,-3.9504e-05,-5.64e-06,0.0,0 STARLINK-5322,1 55303U 23010AL  23327.47217936 -.00000564  00000-0 -39504-4 0  9990,2 55303  70.0000 355.1842 0002715 255.4234 104.6624 14.98322835 47372,6950.215,96.107,573.967,570.193,0.0
